STARLINK-1746
1 46588U 20070BJ  26092.83335647  .00276557  00000+0  13634-2 0  9998
2 46588  53.0392 354.5055 0004372 201.8329 100.5912 15.80813567  5965
